#dP2022  2 11  0  0  0.00000000      96 __u+U ITR00 FIT  IAC
## 2196 432000.00000000   900.00000000 59621 0.0000000000000
+  115   C06C07C08C09C10C11C12C13C14C16C19C20C21C22C23C24C25
+        C26C27C28C29C30C32C33C34C35C36C37C38C39C40C41C42C43
+        C44C45C46E01E02E03E04E05E07E08E09E11E12E13E14E15E18
+        E21E24E25E26E27E30E31E33E36G01G02G03G04G05G06G07G08
+        G09G10G11G12G13G14G15G16G17G18G19G20G21G22G23G24G25
+        G26G27G28G29G30G31G32J01J02J03R01R02R03R04R05R07R08
+        R09R11R12R13R14R15R17R18R19R20R21R22R24  0  0  0  0
++         8  8  8  8  8  7  7  8  6  7  8  7  7  7  6  8  6
++         6  7  7  8  8  8  6  7  6  7  8  7  7  9  7  7  7
++         7  7  6  6  7  6  8  7  6  7  7  6  6  6  8  6  7
++         7  6  6  6  6  6  7  6  6  5  6  6  6  6  5  7  6
++         6  7  6  7  6  6  6  6  6  7  7  5  6  6  6  6  6
++         6  6  5  8  6  6  7 10  9  9  7  7  7  6  6  7  7
++         7  7  7  6  6  6  8  7  8  7  6  7  6  0  0  0  0
%c M  cc GPS ccc cccc cccc cccc cccc ccccc ccccc ccccc ccccc
%c cc cc ccc ccc cccc cccc cccc cccc ccccc ccccc ccccc ccccc
%f  0.0000000  0.000000000  0.00000000000  0.000000000000000
%f  0.0000000  0.000000000  0.00000000000  0.000000000000000
%i    0    0    0    0      0      0      0      0         0
%i    0    0    0    0      0      0      0      0         0
/* INFORMATION & ANALYSIS CENTER (IAC)      ULTRA-RAPID DATA
/* S/V CLOCKS ARE ALIGNED TO GNSS TIME                      
/* G:C1WC2W R:C1PC2P E:C1XC5X C:C2IC6I J:C1CC2S             
/* PCV:IGS14_2194 OL/AL:FES2004  NONE     YN ORB:CoN CLK:CoN
*  2022 02 11  1 15  0.00000000
PC06  -7713.811658  23424.537001  34189.867402     29.469724
PC07 -17366.050069  36158.449208 -13196.945169    -38.147872
PC08  -1995.716770  37328.821542 -19328.166271    125.530240
PC09   3029.282807  26343.297236  33202.008739   -512.208868
PC10 -11333.270593  36241.611489 -18545.880260    139.862183
PC11  -7428.195637 -16896.723286  21007.128437   -215.729410
PC12  12634.570405 -11356.751804  22177.506468    680.826387
PC13   3029.337864  39975.568275 -12496.990114   -120.276148
PC14   2491.888872 -20413.297800 -18816.487029    456.528140
PC16  -8863.386144  22570.832750  34630.550935     79.284253
PC19   6876.429266  14917.365215  22588.361778    898.982057
PC20  -9958.260857  22353.722202  13451.905125   -820.594213
PC21  21881.649661 -16745.576892   4377.617696   -951.758226
PC22  20393.601838  -1414.042698  18988.593093   -957.810691
PC23 -17024.745461  -9303.812579  20057.407723   -962.933820
PC24   2162.563171 -25523.655683 -11127.467626   -943.757725
PC25 -11755.766402 -24269.187541   7217.772286   -781.246767
PC26  12545.807253 -12735.492126 -21451.155112    780.882946
PC27 -20803.064694   6241.606190 -17527.740368    675.478048
PC28 -26970.194248  -6871.669250  -2033.703939     31.298589
PC29  17780.287705  15478.992156 -14942.922203    513.497075
PC30  -2710.535412  15713.260047 -22905.555170    493.086982
PC32 -21758.641082  16917.587644  -4377.425947   -964.351074
PC33  -6911.322653 -14931.132154 -22531.055577   -956.627312
PC34   1709.229133 -15980.537947  22804.029663   -471.774116
PC35  27150.452596   6408.975285   1304.848220    134.103816
PC36  10917.918851  24764.171214  -6767.609861   -899.345931
PC37 -13358.018334  11230.886651  21777.780957   -965.646538
PC38  -6892.956589  34134.348028 -23618.446992    210.544564
PC39 -15281.758649  20445.713497  33535.262971     34.766187
PC40 -24070.103848  32404.592410 -12454.681121    243.353653
PC41 -20218.650312   1109.802084 -19148.285269   -935.409469
PC42  10760.669008 -22426.242392 -12591.000992   -930.710718
PC43 -17103.186373 -15791.912655  15364.887474   -942.491041
PC44  20805.899588  -6889.750814  17288.362331    560.837813
PC45  16942.381920   9023.684591 -20251.170747    677.323164
PC46  -1112.303127  26014.585283   9974.264492   -162.093902
PE01   2062.662258 -28338.440969   8319.499275   -576.728941
PE02  -1932.887544  28282.320285  -8480.479307    279.462261
PE03     63.099960  17427.620135  23923.486210   -526.465533
PE04 -20283.197496  -8975.898737 -19595.255419   -962.030643
PE05 -20569.424918  15792.813703  14270.417492   -210.208372
PE07  28956.507277  -4984.908456   3563.482821   -637.758587
PE08  20626.823491   8525.094097  19438.398643   5857.372652
PE09 -28938.540269   5275.934379  -3354.055846   5364.465927
PE11 -22003.737302  -4190.971929 -19342.393967   4480.381851
PE12 -21788.360354 -19915.485816  -2028.287514   4765.534878
PE13  22227.571533   4806.803318  18962.914697    426.438303
PE14  25203.769447   4069.924859  -6719.275796  -1741.457471
PE15  21806.333159  19933.819174   1909.462340    764.027036
PE18 -29202.880072   7253.733185  -7238.817023  -1806.974327
PE21  13451.579492 -24636.074076  -9420.914636   -716.455785
PE24 -17785.589442   5040.533911  23093.958212  -1383.937189
PE25 -13564.438256  24469.498190   9646.761136   -563.217199
PE26   8869.304442 -13936.296571  24571.510424   -791.369222
PE27  17821.387828  -6566.786617 -22710.124665   -229.582670
PE30  11065.226513  16318.024896 -22084.566661   -264.225050
PE31 -11667.077178 -15246.533690  22535.456602   -492.011762
PE33  -8504.743115 -23249.017128  16228.850347   -459.543965
PE36  -9578.288297  13059.241668 -24767.634626   -330.598939
PG01  19539.379936  10087.305039  14865.572777    434.577340
PG02 -14255.805125 -21836.845531   5318.323137   -650.623591
PG03  15933.991498   -648.182050  21118.304640   -115.887330
PG04  26149.493784   1109.250257   4773.960088   -190.272421
PG05  -8867.148755 -15554.786863 -19730.789126    -70.999400
PG06  -1101.439560 -20378.604313  17027.770889    197.708814
PG07  14266.170968  -6170.980943 -21198.301149    309.366283
PG08  21269.837024   7150.131503 -14501.452963    -55.679188
PG09  24646.591059  -7846.521091  -6178.678794   -354.681193
PG10 -11490.775960  23677.352610  -1930.539491   -317.087243
PG11 -11757.530988 -23388.659335   4537.650618    -93.051819
PG12 -14819.313760  -3384.564483  21502.365625   -169.170114
PG13 -13974.002062 -13031.272626 -18669.484774    259.710894
PG14  12991.385694 -22977.244864  -2602.320348    -82.375554
PG15 -22263.871082  -5317.924150 -14142.331861    -84.769846
PG16   4216.121179  18736.906701 -18403.187232   -467.831137
PG17  14298.281768 -13252.324049  18496.473759    573.472367
PG18 -13659.521964   6584.428085 -21814.042426    242.783577
PG19   5995.809272 -14357.719744  21236.758200    117.312609
PG20  -3541.398881 -23230.455981 -12621.132001    516.761384
PG21  20638.997398  16045.786369   6977.030488    157.823195
PG22  -2023.211605  15392.458235  21936.547085    211.747640
PG23 -16028.746879  17008.555925 -12542.520254      2.491810
PG24 -21143.721704 -12339.000365  10501.839020    275.097307
PG25 -17266.922559  10331.852871  16908.714669    283.778511
PG26  -3248.790734  25083.493379  -7651.064800    182.182855
PG27  11135.528196  12833.301390 -20708.665682    113.631911
PG28   8379.003343 -24633.503763   6417.464357    403.137656
PG29 -26030.608746   3798.583448  -3931.244462   -478.654431
PG30   7597.144106 -15114.262360 -20353.065254   -512.608005
PG31   2492.132535  21582.802810  14826.079087   -164.146259
PG32  -9377.676068  15181.503502  19741.541399    -65.533565
PJ01 -31822.025338  27190.388092  10411.503377    253.294733
PJ02 -30104.184707  25670.763582  19540.157456     -1.275074
PJ03 -27621.773387  16463.329915 -22656.776171     -0.479621
PR01 -21603.810900  13353.023342  -2437.928455      7.074840
PR02 -10941.114955  16182.815074  16408.080314    509.264187
PR03   5832.161155   9262.017683  23084.150890     51.285280
PR04  18932.657868  -2815.873896  16895.139104    127.164049
PR05  21786.175559 -13226.639359   1351.226139     87.494854
PR07  -6381.782535  -8860.447441 -23013.415506     31.527931
PR08 -19007.382922   2910.633044 -16688.766767    -63.507733
PR09   1305.548299 -24656.620201  -6249.645897     38.831584
PR11 -10892.190727  -7383.631008  21855.644862     45.767182
PR12  -8928.394054  12751.283161  20218.683319     17.143597
PR13  -1829.978161  24344.774885   7360.872316    -18.137621
PR14   6732.075101  21984.108296 -11053.966943     74.210428
PR15  10965.059141   6714.279411 -22016.953254     98.278184
PR17  16634.743306  14845.802812 -12348.840094    500.519930
PR18  23140.500151   9943.650948   4245.191666    106.842293
PR19  18107.299936    961.375113  17946.241825   -177.733358
PR20    480.131047 -11335.853277  22852.419265    -64.708720
PR21 -17585.284528 -14776.667483  11120.934931   -277.075751
PR22 -23007.033052  -9591.376426  -5170.271537   -163.921478
PR24    313.383180  12057.540771 -22453.416945     79.652576
EOF
